NORAD_CAT_ID,OBJECT_NAME,OBJECT_TYPE,EPOCH,MEAN_MOTION,ECCENTRICITY,INCLINATION,RA_OF_ASC_NODE,ARG_OF_PERICENTER,MEAN_ANOMALY,BSTAR,MEAN_MOTION_DOT,MEAN_MOTION_DDOT,TLE_LINE0,TLE_LINE1,TLE_LINE2,SEMIMAJOR_AXIS,PERIOD,APOGEE,PERIGEE,DECAYED
52682.0,STARLINK-4017,PAYLOAD,2022-11-13 00:45:18,15.08852839,0.0002331,53.2158,187.9433,34.5184,325.5959,0.00015813,2.23e-05,0.0,0 STARLINK-4017,1 52682U 22053AC  22317.03146182  .00002230  00000-0  15813-3 0  9993,2 52682  53.2158 187.9433 0002331  34.5184 325.5959 15.08852839 27677,6917.840999999999,95.437,541.319,538.094,0.0
52682.0,STARLINK-4017,PAYLOAD,2022-11-13 08:42:13,15.08850342,0.000242,53.2162,186.4562,33.8918,326.2229,7.9988e-06,-1.61e-06,0.0,0 STARLINK-4017,1 52682U 22053AC  22317.36266186 -.00000161  00000-0  79988-5 0  9993,2 52682  53.2162 186.4562 0002420  33.8918 326.2229 15.08850342 28132,6917.849,95.437,541.388,538.04,0.0
52682.0,STARLINK-4017,PAYLOAD,2022-11-13 15:03:47,15.08842554,0.0003025,53.2146,185.2678,42.207,317.9155,6.6267e-05,7.66e-06,0.0,0 STARLINK-4017,1 52682U 22053AC  22317.62762857  .00000766  00000-0  66267-4 0  9993,2 52682  53.2146 185.2678 0003025  42.2070 317.9155 15.08842554 27763,6917.873000000001,95.437,541.83,537.645,0.0
52682.0,STARLINK-4017,PAYLOAD,2022-11-14 08:33:01,15.08840882,0.0002576,53.2165,181.9964,36.7721,323.3448,4.7804e-05,4.72e-06,0.0,0 STARLINK-4017,1 52682U 22053AC  22318.35627030  .00000472  00000-0  47804-4 0  9997,2 52682  53.2165 181.9964 0002576  36.7721 323.3448 15.08840882 28282,6917.878000000002,95.437,541.525,537.961,0.0
52682.0,STARLINK-4017,PAYLOAD,2022-11-14 18:05:20,15.08845952,0.0002349,53.2165,180.2122,37.4897,322.6258,0.00010896,1.446e-05,0.0,0 STARLINK-4017,1 52682U 22053AC  22318.75370749  .00001446  00000-0  10896-3 0  9995,2 52682  53.2165 180.2122 0002349  37.4897 322.6258 15.08845952 27935,6917.861999999999,95.437,541.352,538.102,0.0
52682.0,STARLINK-4017,PAYLOAD,2022-11-15 11:34:34,15.08846319,0.0002492,53.2164,176.9415,35.4012,324.7146,-0.00014837,-2.65e-05,0.0,0 STARLINK-4017,1 52682U 22053AC  22319.48234571 -.00002650  00000-0 -14837-3 0  9997,2 52682  53.2164 176.9415 0002492  35.4012 324.7146 15.08846319 28452,6917.861,95.437,541.45,538.002,0.0
52682.0,STARLINK-4017,PAYLOAD,2022-11-15 19:31:30,15.08838273,0.000246,53.2164,175.4547,37.0239,323.0923,0.00020154,2.921e-05,0.0,0 STARLINK-4017,1 52682U 22053AC  22319.81355317  .00002921  00000-0  20154-3 0  9994,2 52682  53.2164 175.4547 0002460  37.0239 323.0923 15.08838273 28091,6917.886,95.438,541.452,538.049,0.0
52682.0,STARLINK-4017,PAYLOAD,2022-11-15 21:06:54,15.08837246,0.0002435,53.2167,175.1575,37.4794,322.6367,0.00013318,1.832e-05,0.0,0 STARLINK-4017,1 52682U 22053AC  22319.87979311  .00001832  00000-0  13318-3 0  9990,2 52682  53.2167 175.1575 0002435  37.4794 322.6367 15.08837246 28517,6917.889,95.438,541.438,538.069,0.0
52682.0,STARLINK-4017,PAYLOAD,2022-11-16 09:50:00,15.08826395,0.0002456,53.2171,172.7796,36.2694,323.8464,-6.489399999999999e-05,-1.321e-05,0.0,0 STARLINK-4017,1 52682U 22053AC  22320.40972248 -.00001321  00000-0 -64894-4 0  9994,2 52682  53.2171 172.7796 0002456  36.2694 323.8464 15.08826395 28186,6917.922,95.438,541.486,538.0880000000002,0.0
52682.0,STARLINK-4017,PAYLOAD,2022-11-16 13:00:46,15.08829493,0.0002472,53.2169,172.1849,36.6149,323.5012,-3.3291e-05,-8.18e-06,0.0,0 STARLINK-4017,1 52682U 22053AC  22320.54220168 -.00000818  00000-0 -33291-4 0  9993,2 52682  53.2169 172.1849 0002472  36.6149 323.5012 15.08829493 28619,6917.913000000001,95.438,541.488,538.067,0.0
52682.0,STARLINK-4017,PAYLOAD,2022-11-16 20:57:42,15.08832872,0.0002427,53.2177,170.6977,38.2876,321.8289,-5.752e-06,-3.8e-06,0.0,0 STARLINK-4017,1 52682U 22053AC  22320.87340414 -.00000380  00000-0 -57520-5 0  9992,2 52682  53.2177 170.6977 0002427  38.2876 321.8289 15.08832872 28665,6917.901999999999,95.438,541.446,538.0880000000002,0.0
52682.0,STARLINK-4017,PAYLOAD,2022-11-17 00:08:28,15.08835634,0.0002414,53.2176,170.1029,38.6572,321.4592,-9.073e-06,-4.33e-06,0.0,0 STARLINK-4017,1 52682U 22053AC  22321.00588237 -.00000433  00000-0 -90730-5 0  9994,2 52682  53.2176 170.1029 0002414  38.6572 321.4592 15.08835634 28279,6917.894,95.438,541.429,538.089,0.0
52682.0,STARLINK-4017,PAYLOAD,2022-11-17 12:51:33,15.08834873,0.0002419,53.2172,167.7237,38.5552,321.5612,8.2208e-05,1.02e-05,0.0,0 STARLINK-4017,1 52682U 22053AC  22321.53580409  .00001020  00000-0  82208-4 0  9996,2 52682  53.2172 167.7237 0002419  38.5552 321.5612 15.08834873 28762,6917.896,95.438,541.434,538.0880000000002,0.0
52682.0,STARLINK-4017,PAYLOAD,2022-11-17 14:26:56,15.08834021,0.0002422,53.2171,167.4263,38.532,321.5844,8.719e-05,1.099e-05,0.0,0 STARLINK-4017,1 52682U 22053AC  22321.60204506  .00001099  00000-0  87190-4 0  9996,2 52682  53.2171 167.4263 0002422  38.5320 321.5844 15.08834021 28777,6917.899,95.438,541.439,538.0880000000002,0.0
52682.0,STARLINK-4017,PAYLOAD,2022-11-18 06:20:48,15.08833237,0.0002459,53.2171,164.4525,38.6755,321.4413,0.00019548,2.824e-05,0.0,0 STARLINK-4017,1 52682U 22053AC  22322.26444607  .00002824  00000-0  19548-3 0  9995,2 52682  53.2171 164.4525 0002459  38.6755 321.4413 15.08833237 28463,6917.901,95.438,541.467,538.065,0.0
52682.0,STARLINK-4017,PAYLOAD,2022-11-18 20:39:16,15.08841986,0.0002482,53.2171,161.7762,39.9406,320.1769,0.0002096,3.049e-05,0.0,0 STARLINK-4017,1 52682U 22053AC  22322.86060377  .00003049  00000-0  20960-3 0  9999,2 52682  53.2171 161.7762 0002482  39.9406 320.1769 15.08841986 28964,6917.874,95.437,541.456,538.0219999999998,0.0
52682.0,STARLINK-4017,PAYLOAD,2022-11-18 23:50:02,15.08845431,0.0002547,53.2164,161.1815,39.9416,320.1763,0.00022431,3.284e-05,0.0,0 STARLINK-4017,1 52682U 22053AC  22322.99308280  .00003284  00000-0  22431-3 0  9997,2 52682  53.2164 161.1815 0002547  39.9416 320.1763 15.08845431 28572,6917.864000000001,95.437,541.491,537.967,0.0
52682.0,STARLINK-4017,PAYLOAD,2022-11-20 06:02:21,15.08841653,0.00026,53.2167,155.5312,43.2573,316.8623,-2.4817e-05,-6.83e-06,0.0,0 STARLINK-4017,1 52682U 22053AC  22324.25163804 -.00000683  00000-0 -24817-4 0  9992,2 52682  53.2167 155.5312 0002600  43.2573 316.8623 15.08841653 28766,6917.875,95.437,541.539,537.942,0.0
52682.0,STARLINK-4017,PAYLOAD,2022-11-20 12:23:54,15.0884176,0.0002601,53.2167,154.3416,43.4601,316.6596,-3.1362e-05,-7.88e-06,0.0,0 STARLINK-4017,1 52682U 22053AC  22324.51659727 -.00000788  00000-0 -31362-4 0  9994,2 52682  53.2167 154.3416 0002601  43.4601 316.6596 15.08841760 29210,6917.875,95.437,541.539,537.941,0.0
52682.0,STARLINK-4017,PAYLOAD,2022-11-20 20:20:49,15.08844504,0.0002587,53.2177,152.8547,43.9258,316.1939,9.0699e-06,-1.44e-06,0.0,0 STARLINK-4017,1 52682U 22053AC  22324.84779882 -.00000144  00000-0  90699-5 0  9999,2 52682  53.2177 152.8547 0002587  43.9258 316.1939 15.08844504 29265,6917.8669999999975,95.437,541.521,537.942,0.0
52682.0,STARLINK-4017,PAYLOAD,2022-11-21 09:03:54,15.08840533,0.0002545,53.2174,150.4763,42.749,317.37,9.5774e-05,1.236e-05,0.0,0 STARLINK-4017,1 52682U 22053AC  22325.37771348  .00001236  00000-0  95774-4 0  9997,2 52682  53.2174 150.4763 0002545  42.7490 317.3700 15.08840533 28935,6917.879,95.438,541.504,537.9830000000002,0.0
52682.0,STARLINK-4017,PAYLOAD,2022-11-21 12:14:40,15.08841775,0.000256,53.2172,149.8814,43.3619,316.7574,0.00011035,1.468e-05,0.0,0 STARLINK-4017,1 52682U 22053AC  22325.51019223  .00001468  00000-0  11035-3 0  9994,2 52682  53.2172 149.8814 0002560  43.3619 316.7574 15.08841775 29368,6917.875,95.437,541.511,537.969,0.0
52682.0,STARLINK-4017,PAYLOAD,2022-11-21 21:46:59,15.08844336,0.0002589,53.2172,148.0973,44.1929,315.927,0.00012628,1.722e-05,0.0,0 STARLINK-4017,1 52682U 22053AC  22325.90763045  .00001722  00000-0  12628-3 0  9997,2 52682  53.2172 148.0973 0002589  44.1929 315.9270 15.08844336 29426,6917.8669999999975,95.437,541.523,537.941,0.0
52682.0,STARLINK-4017,PAYLOAD,2022-11-22 18:27:00,15.08837899,0.0002634999999999,53.2172,144.2316,45.9526,314.1682,4.9605e-05,5.01e-06,0.0,0 STARLINK-4017,1 52682U 22053AC  22326.76875616  .00000501  00000-0  49605-4 0  9990,2 52682  53.2172 144.2316 0002635  45.9526 314.1682 15.08837899 29142,6917.887,95.438,541.575,537.929,0.0
52682.0,STARLINK-4017,PAYLOAD,2022-11-23 18:17:47,15.08837435,0.0002621,53.2174,139.7708,47.1862,312.935,-1.3643e-06,-3.1e-06,0.0,0 STARLINK-4017,1 52682U 22053AC  22327.76235895 -.00000310  00000-0 -13643-5 0  9994,2 52682  53.2174 139.7708 0002621  47.1862 312.9350 15.08837435 29706,6917.888000000001,95.438,541.566,537.94,0.0
52682.0,STARLINK-4017,PAYLOAD,2022-11-23 21:28:34,15.08837407,0.0002586,53.2178,139.1755,47.9571,312.164,-8.4162e-06,-4.22e-06,0.0,0 STARLINK-4017,1 52682U 22053AC  22327.89483886 -.00000422  00000-0 -84162-5 0  9991,2 52682  53.2178 139.1755 0002586  47.9571 312.1640 15.08837407 29311,6917.888000000001,95.438,541.5419999999998,537.964,0.0
52682.0,STARLINK-4017,PAYLOAD,2022-11-24 11:47:02,15.08827384,0.0002598,53.2175,136.4993,47.494,312.6272,4.7513e-05,4.68e-06,0.0,0 STARLINK-4017,1 52682U 22053AC  22328.49100530  .00000468  00000-0  47513-4 0  9996,2 52682  53.2175 136.4993 0002598  47.4940 312.6272 15.08827384 29409,6917.919,95.438,541.581,537.987,0.0
52682.0,STARLINK-4017,PAYLOAD,2022-11-24 18:08:35,15.088280599999996,0.0002616,53.2175,135.31,47.786,312.3354,4.801e-05,4.75e-06,0.0,0 STARLINK-4017,1 52682U 22053AC  22328.75596664  .00000475  00000-0  48010-4 0  9993,2 52682  53.2175 135.3100 0002616  47.7860 312.3354 15.08828060 29851,6917.917,95.438,541.592,537.972,0.0
52682.0,STARLINK-4017,PAYLOAD,2022-11-25 11:37:50,15.08833665,0.0002624,53.2175,132.0391,49.5582,310.5639,5.9265e-05,6.55e-06,0.0,0 STARLINK-4017,1 52682U 22053AC  22329.48460780  .00000655  00000-0  59265-4 0  9997,2 52682  53.2175 132.0391 0002624  49.5582 310.5639 15.08833665 29962,6917.9,95.438,541.58,537.9490000000002,0.0
